[{"OBJECT_NAME":"NOAA 1","OBJECT_ID":"1970-106A","EPOCH":"2026-03-31T02:20:38.032224","MEAN_MOTION":12.54049633,"ECCENTRICITY":0.00320256,"INCLINATION":101.3467,"RA_OF_ASC_NODE":128.2211,"ARG_OF_PERICENTER":139.2234,"MEAN_ANOMALY":235.4645,"EPHEMERIS_TYPE":0,"CLASSIFICATION_TYPE":"U","NORAD_CAT_ID":4793,"ELEMENT_SET_NO":999,"REV_AT_EPOCH":53090,"BSTAR":0.00014387442,"MEAN_MOTION_DOT":-1.9e-7,"MEAN_MOTION_DDOT":0},{"OBJECT_NAME":"NOAA 2 (ITOS-D)","OBJECT_ID":"1972-082A","EPOCH":"2026-03-31T06:41:30.797952","MEAN_MOTION":12.53212542,"ECCENTRICITY":0.00037632,"INCLINATION":102.0144,"RA_OF_ASC_NODE":107.9809,"ARG_OF_PERICENTER":322.4493,"MEAN_ANOMALY":48.2292,"EPHEMERIS_TYPE":0,"CLASSIFICATION_TYPE":"U","NORAD_CAT_ID":6235,"ELEMENT_SET_NO":999,"REV_AT_EPOCH":44519,"BSTAR":0.00015978554,"MEAN_MOTION_DOT":-2.1e-7,"MEAN_MOTION_DDOT":0},{"OBJECT_NAME":"NOAA 3","OBJECT_ID":"1973-086A","EPOCH":"2026-03-31T06:36:23.081760","MEAN_MOTION":12.40392386,"ECCENTRICITY":0.00061826,"INCLINATION":102.2893,"RA_OF_ASC_NODE":103.4641,"ARG_OF_PERICENTER":267.6515,"MEAN_ANOMALY":103.6082,"EPHEMERIS_TYPE":0,"CLASSIFICATION_TYPE":"U","NORAD_CAT_ID":6920,"ELEMENT_SET_NO":999,"REV_AT_EPOCH":37224,"BSTAR":0.00016380863,"MEAN_MOTION_DOT":-2.4e-7,"MEAN_MOTION_DDOT":0},{"OBJECT_NAME":"NOAA 4","OBJECT_ID":"1974-089A","EPOCH":"2026-03-31T06:12:29.329920","MEAN_MOTION":12.53202157,"ECCENTRICITY":0.00088695,"INCLINATION":102.0061,"RA_OF_ASC_NODE":102.2214,"ARG_OF_PERICENTER":347.8441,"MEAN_ANOMALY":22.9314,"EPHEMERIS_TYPE":0,"CLASSIFICATION_TYPE":"U","NORAD_CAT_ID":7529,"ELEMENT_SET_NO":999,"REV_AT_EPOCH":34976,"BSTAR":0.00012478946,"MEAN_MOTION_DOT":-2.7e-7,"MEAN_MOTION_DDOT":0},{"OBJECT_NAME":"NOAA 5","OBJECT_ID":"1976-077A","EPOCH":"2026-03-30T22:15:49.378176","MEAN_MOTION":12.37829229,"ECCENTRICITY":0.0010052,"INCLINATION":102.2986,"RA_OF_ASC_NODE":75.5489,"ARG_OF_PERICENTER":121.832,"MEAN_ANOMALY":270.0285,"EPHEMERIS_TYPE":0,"CLASSIFICATION_TYPE":"U","NORAD_CAT_ID":9057,"ELEMENT_SET_NO":999,"REV_AT_EPOCH":24479,"BSTAR":0.00017766,"MEAN_MOTION_DOT":-2.3e-7,"MEAN_MOTION_DDOT":0},{"OBJECT_NAME":"TIROS N","OBJECT_ID":"1978-096A","EPOCH":"2026-03-31T07:30:10.542528","MEAN_MOTION":14.19348193,"ECCENTRICITY":0.0011591,"INCLINATION":98.4605,"RA_OF_ASC_NODE":114.8711,"ARG_OF_PERICENTER":107.0311,"MEAN_ANOMALY":253.2137,"EPHEMERIS_TYPE":0,"CLASSIFICATION_TYPE":"U","NORAD_CAT_ID":11060,"ELEMENT_SET_NO":999,"REV_AT_EPOCH":66770,"BSTAR":0.00013334097,"MEAN_MOTION_DOT":2.39e-6,"MEAN_MOTION_DDOT":0},{"OBJECT_NAME":"NOAA 6","OBJECT_ID":"1979-057A","EPOCH":"2026-03-31T02:10:13.386144","MEAN_MOTION":14.35449753,"ECCENTRICITY":0.00108364,"INCLINATION":98.5717,"RA_OF_ASC_NODE":120.1115,"ARG_OF_PERICENTER":126.3483,"MEAN_ANOMALY":233.8704,"EPHEMERIS_TYPE":0,"CLASSIFICATION_TYPE":"U","NORAD_CAT_ID":11416,"ELEMENT_SET_NO":999,"REV_AT_EPOCH":43975,"BSTAR":0.00015631402,"MEAN_MOTION_DOT":4.05e-6,"MEAN_MOTION_DDOT":0},{"OBJECT_NAME":"NOAA 7","OBJECT_ID":"1981-059A","EPOCH":"2026-03-31T04:27:36.295200","MEAN_MOTION":14.17777849,"ECCENTRICITY":0.00123219,"INCLINATION":98.8018,"RA_OF_ASC_NODE":158.0503,"ARG_OF_PERICENTER":128.6514,"MEAN_ANOMALY":231.5766,"EPHEMERIS_TYPE":0,"CLASSIFICATION_TYPE":"U","NORAD_CAT_ID":12553,"ELEMENT_SET_NO":999,"REV_AT_EPOCH":31369,"BSTAR":5.2048372e-5,"MEAN_MOTION_DOT":6.2e-7,"MEAN_MOTION_DDOT":0},{"OBJECT_NAME":"NOAA 8","OBJECT_ID":"1983-022A","EPOCH":"2026-03-31T00:55:31.736928","MEAN_MOTION":14.29775304,"ECCENTRICITY":0.00157152,"INCLINATION":98.7362,"RA_OF_ASC_NODE":102.9065,"ARG_OF_PERICENTER":124.9513,"MEAN_ANOMALY":235.3147,"EPHEMERIS_TYPE":0,"CLASSIFICATION_TYPE":"U","NORAD_CAT_ID":13923,"ELEMENT_SET_NO":999,"REV_AT_EPOCH":23990,"BSTAR":9.4029811e-5,"MEAN_MOTION_DOT":1.97e-6,"MEAN_MOTION_DDOT":0},{"OBJECT_NAME":"NOAA 9","OBJECT_ID":"1984-123A","EPOCH":"2026-03-31T00:49:07.976640","MEAN_MOTION":14.17046127,"ECCENTRICITY":0.00142031,"INCLINATION":99.1068,"RA_OF_ASC_NODE":114.835,"ARG_OF_PERICENTER":207.7183,"MEAN_ANOMALY":181.7541,"EPHEMERIS_TYPE":0,"CLASSIFICATION_TYPE":"U","NORAD_CAT_ID":15427,"ELEMENT_SET_NO":999,"REV_AT_EPOCH":13235,"BSTAR":0.00010292141,"MEAN_MOTION_DOT":1.6e-6,"MEAN_MOTION_DDOT":0},{"OBJECT_NAME":"NOAA 10","OBJECT_ID":"1986-073A","EPOCH":"2026-03-30T23:10:57.305856","MEAN_MOTION":14.29152953,"ECCENTRICITY":0.00112557,"INCLINATION":98.7018,"RA_OF_ASC_NODE":83.3197,"ARG_OF_PERICENTER":221.1228,"MEAN_ANOMALY":193.3726,"EPHEMERIS_TYPE":0,"CLASSIFICATION_TYPE":"U","NORAD_CAT_ID":16969,"ELEMENT_SET_NO":999,"REV_AT_EPOCH":5824,"BSTAR":9.3233221e-5,"MEAN_MOTION_DOT":1.92e-6,"MEAN_MOTION_DDOT":0},{"OBJECT_NAME":"NOAA 11","OBJECT_ID":"1988-089A","EPOCH":"2026-03-30T20:18:34.766208","MEAN_MOTION":14.15825526,"ECCENTRICITY":0.00113791,"INCLINATION":98.613,"RA_OF_ASC_NODE":38.1775,"ARG_OF_PERICENTER":157.6303,"MEAN_ANOMALY":202.537,"EPHEMERIS_TYPE":0,"CLASSIFICATION_TYPE":"U","NORAD_CAT_ID":19531,"ELEMENT_SET_NO":999,"REV_AT_EPOCH":93639,"BSTAR":5.3164727e-5,"MEAN_MOTION_DOT":6.2e-7,"MEAN_MOTION_DDOT":0},{"OBJECT_NAME":"NOAA 12","OBJECT_ID":"1991-032A","EPOCH":"2026-03-31T05:07:19.758432","MEAN_MOTION":14.26724506,"ECCENTRICITY":0.00125135,"INCLINATION":98.6175,"RA_OF_ASC_NODE":79.883,"ARG_OF_PERICENTER":255.2457,"MEAN_ANOMALY":104.7337,"EPHEMERIS_TYPE":0,"CLASSIFICATION_TYPE":"U","NORAD_CAT_ID":21263,"ELEMENT_SET_NO":999,"REV_AT_EPOCH":81384,"BSTAR":7.6404464e-5,"MEAN_MOTION_DOT":1.41e-6,"MEAN_MOTION_DDOT":0},{"OBJECT_NAME":"NOAA 13","OBJECT_ID":"1993-050A","EPOCH":"2026-03-31T02:17:52.584864","MEAN_MOTION":14.13643635,"ECCENTRICITY":0.00094783,"INCLINATION":98.6966,"RA_OF_ASC_NODE":37.2496,"ARG_OF_PERICENTER":359.5467,"MEAN_ANOMALY":0.5696,"EPHEMERIS_TYPE":0,"CLASSIFICATION_TYPE":"U","NORAD_CAT_ID":22739,"ELEMENT_SET_NO":999,"REV_AT_EPOCH":68234,"BSTAR":9.9719376e-5,"MEAN_MOTION_DOT":1.45e-6,"MEAN_MOTION_DDOT":0},{"OBJECT_NAME":"NOAA 14","OBJECT_ID":"1994-089A","EPOCH":"2026-03-31T06:06:01.131264","MEAN_MOTION":14.14660226,"ECCENTRICITY":0.00086139,"INCLINATION":98.5058,"RA_OF_ASC_NODE":63.45,"ARG_OF_PERICENTER":312.9228,"MEAN_ANOMALY":47.1223,"EPHEMERIS_TYPE":0,"CLASSIFICATION_TYPE":"U","NORAD_CAT_ID":23455,"ELEMENT_SET_NO":999,"REV_AT_EPOCH":61218,"BSTAR":6.9847617e-5,"MEAN_MOTION_DOT":9.3e-7,"MEAN_MOTION_DDOT":0},{"OBJECT_NAME":"NOAA 15","OBJECT_ID":"1998-030A","EPOCH":"2026-03-31T07:01:54.754176","MEAN_MOTION":14.27121263,"ECCENTRICITY":0.00096604,"INCLINATION":98.5136,"RA_OF_ASC_NODE":113.0081,"ARG_OF_PERICENTER":209.9607,"MEAN_ANOMALY":150.1022,"EPHEMERIS_TYPE":0,"CLASSIFICATION_TYPE":"U","NORAD_CAT_ID":25338,"ELEMENT_SET_NO":999,"REV_AT_EPOCH":45018,"BSTAR":9.3518401e-5,"MEAN_MOTION_DOT":1.85e-6,"MEAN_MOTION_DDOT":0},{"OBJECT_NAME":"NOAA 16","OBJECT_ID":"2000-055A","EPOCH":"2026-03-31T06:03:41.551200","MEAN_MOTION":14.13904165,"ECCENTRICITY":0.00108087,"INCLINATION":98.4683,"RA_OF_ASC_NODE":108.6303,"ARG_OF_PERICENTER":159.215,"MEAN_ANOMALY":200.9466,"EPHEMERIS_TYPE":0,"CLASSIFICATION_TYPE":"U","NORAD_CAT_ID":26536,"ELEMENT_SET_NO":999,"REV_AT_EPOCH":61271,"BSTAR":9.6843817e-5,"MEAN_MOTION_DOT":1.43e-6,"MEAN_MOTION_DDOT":0},{"OBJECT_NAME":"NOAA 17","OBJECT_ID":"2002-032A","EPOCH":"2026-03-31T05:07:48.172800","MEAN_MOTION":14.26201798,"ECCENTRICITY":0.00109439,"INCLINATION":98.8579,"RA_OF_ASC_NODE":55.0764,"ARG_OF_PERICENTER":213.5444,"MEAN_ANOMALY":146.5043,"EPHEMERIS_TYPE":0,"CLASSIFICATION_TYPE":"U","NORAD_CAT_ID":27453,"ELEMENT_SET_NO":999,"REV_AT_EPOCH":23587,"BSTAR":0.00014473969,"MEAN_MOTION_DOT":3.01e-6,"MEAN_MOTION_DDOT":0},{"OBJECT_NAME":"NOAA 18","OBJECT_ID":"2005-018A","EPOCH":"2026-03-31T04:46:34.188384","MEAN_MOTION":14.13715123,"ECCENTRICITY":0.00144375,"INCLINATION":98.8128,"RA_OF_ASC_NODE":171.0021,"ARG_OF_PERICENTER":17.1721,"MEAN_ANOMALY":342.9938,"EPHEMERIS_TYPE":0,"CLASSIFICATION_TYPE":"U","NORAD_CAT_ID":28654,"ELEMENT_SET_NO":999,"REV_AT_EPOCH":7529,"BSTAR":5.8858484e-5,"MEAN_MOTION_DOT":6.8e-7,"MEAN_MOTION_DDOT":0},{"OBJECT_NAME":"NOAA 19","OBJECT_ID":"2009-005A","EPOCH":"2026-03-31T06:06:55.686816","MEAN_MOTION":14.13460968,"ECCENTRICITY":0.00128151,"INCLINATION":98.9568,"RA_OF_ASC_NODE":161.0581,"ARG_OF_PERICENTER":248.903,"MEAN_ANOMALY":111.0773,"EPHEMERIS_TYPE":0,"CLASSIFICATION_TYPE":"U","NORAD_CAT_ID":33591,"ELEMENT_SET_NO":999,"REV_AT_EPOCH":88347,"BSTAR":6.5600651e-5,"MEAN_MOTION_DOT":7.8e-7,"MEAN_MOTION_DDOT":0},{"OBJECT_NAME":"SUOMI NPP","OBJECT_ID":"2011-061A","EPOCH":"2026-03-31T05:47:45.207744","MEAN_MOTION":14.19499361,"ECCENTRICITY":0.00018033,"INCLINATION":98.7898,"RA_OF_ASC_NODE":31.6756,"ARG_OF_PERICENTER":153.1674,"MEAN_ANOMALY":206.9596,"EPHEMERIS_TYPE":0,"CLASSIFICATION_TYPE":"U","NORAD_CAT_ID":37849,"ELEMENT_SET_NO":999,"REV_AT_EPOCH":74738,"BSTAR":7.5240927e-5,"MEAN_MOTION_DOT":1.14e-6,"MEAN_MOTION_DDOT":0},{"OBJECT_NAME":"NOAA 20 (JPSS-1)","OBJECT_ID":"2017-073A","EPOCH":"2026-03-31T06:08:25.337184","MEAN_MOTION":14.195417,"ECCENTRICITY":0.00019429,"INCLINATION":98.7717,"RA_OF_ASC_NODE":30.4319,"ARG_OF_PERICENTER":108.8438,"MEAN_ANOMALY":251.2949,"EPHEMERIS_TYPE":0,"CLASSIFICATION_TYPE":"U","NORAD_CAT_ID":43013,"ELEMENT_SET_NO":999,"REV_AT_EPOCH":43341,"BSTAR":6.2071226e-5,"MEAN_MOTION_DOT":8.7e-7,"MEAN_MOTION_DDOT":0},{"OBJECT_NAME":"NOAA 21 (JPSS-2)","OBJECT_ID":"2022-150A","EPOCH":"2026-03-31T05:16:33.303360","MEAN_MOTION":14.19557853,"ECCENTRICITY":0.000272,"INCLINATION":98.7579,"RA_OF_ASC_NODE":30.2421,"ARG_OF_PERICENTER":69.0968,"MEAN_ANOMALY":291.0499,"EPHEMERIS_TYPE":0,"CLASSIFICATION_TYPE":"U","NORAD_CAT_ID":54234,"ELEMENT_SET_NO":999,"REV_AT_EPOCH":17548,"BSTAR":7.1346784e-5,"MEAN_MOTION_DOT":1.06e-6,"MEAN_MOTION_DDOT":0}]
